NORAD_CAT_ID,OBJECT_NAME,OBJECT_TYPE,EPOCH,MEAN_MOTION,ECCENTRICITY,INCLINATION,RA_OF_ASC_NODE,ARG_OF_PERICENTER,MEAN_ANOMALY,BSTAR,MEAN_MOTION_DOT,MEAN_MOTION_DDOT,TLE_LINE0,TLE_LINE1,TLE_LINE2,SEMIMAJOR_AXIS,PERIOD,APOGEE,PERIGEE,DECAYED
51717.0,STARLINK-3445,PAYLOAD,2023-03-01 18:46:48,15.08833009,0.0001295,53.214,244.7521,72.5826,287.5308,0.00084342,0.00013158,0.0,0 STARLINK-3445,1 51717U 22016D   23060.78250163  .00013158  00000-0  84342-3 0  9997,2 51717  53.2140 244.7521 0001295  72.5826 287.5308 15.08833009 56775,6917.902,95.438,540.663,538.871,0.0
51717.0,STARLINK-3445,PAYLOAD,2023-03-01 21:57:34,15.08840344,0.000133,53.2141,244.1576,68.6828,291.4306,0.0010157,0.00015914,0.0,0 STARLINK-3445,1 51717U 22016D   23060.91498188  .00015914  00000-0  10157-2 0  9997,2 51717  53.2141 244.1576 0001330  68.6828 291.4306 15.08840344 57928,6917.879,95.438,540.664,538.824,0.0
51717.0,STARLINK-3445,PAYLOAD,2023-03-02 18:37:34,15.088591,0.0001353,53.2131,240.2908,69.4065,290.7072,0.00084082,0.00013126,0.0,0 STARLINK-3445,1 51717U 22016D   23061.77609722  .00013126  00000-0  84082-3 0  9992,2 51717  53.2131 240.2908 0001353  69.4065 290.7072 15.08859100 56921,6917.822,95.436,540.623,538.751,0.0
51717.0,STARLINK-3445,PAYLOAD,2023-03-03 12:06:48,15.08854805,0.0001416,53.2122,237.0199,71.642,288.4726,0.00030084,4.505e-05,0.0,0 STARLINK-3445,1 51717U 22016D   23062.50473222  .00004505  00000-0  30084-3 0  9992,2 51717  53.2122 237.0199 0001416  71.6420 288.4726 15.08854805 58162,6917.835,95.437,540.68,538.721,0.0
51717.0,STARLINK-3445,PAYLOAD,2023-03-03 18:28:20,15.08863944,0.0001353,53.2124,235.8303,70.353,289.7608,0.00045329,6.938e-05,0.0,0 STARLINK-3445,1 51717U 22016D   23062.76968668  .00006938  00000-0  45329-3 0  9993,2 51717  53.2124 235.8303 0001353  70.3530 289.7608 15.08863944 57071,6917.807,95.436,540.608,538.736,0.0
51717.0,STARLINK-3445,PAYLOAD,2023-03-04 10:22:12,15.08844074,0.0001875,53.2121,232.8567,80.4686,279.6518,-4.9614e-05,-1.078e-05,0.0,0 STARLINK-3445,1 51717U 22016D   23063.43208942 -.00001078  00000-0 -49614-4 0  9994,2 51717  53.2121 232.8567 0001875  80.4686 279.6518 15.08844074 58308,6917.868,95.437,541.03,538.436,0.0
51717.0,STARLINK-3445,PAYLOAD,2023-03-04 18:19:08,15.08841732,0.0001873,53.2125,231.3695,80.7701,279.3503,-5.479e-05,-1.16e-05,0.0,0 STARLINK-3445,1 51717U 22016D   23063.76329036 -.00001160  00000-0 -54790-4 0  9991,2 51717  53.2125 231.3695 0001873  80.7701 279.3503 15.08841732 57226,6917.875,95.437,541.036,538.444,0.0
51717.0,STARLINK-3445,PAYLOAD,2023-03-05 03:51:27,15.0883764,0.0001247,53.2128,229.5871,92.2895,267.824,-1.8865e-05,-5.88e-06,0.0,0 STARLINK-3445,1 51717U 22016D   23064.16073308 -.00000588  00000-0 -18865-4 0  9990,2 51717  53.2128 229.5871 0001247  92.2895 267.8240 15.08837640 58416,6917.888,95.438,540.615,538.89,0.0
51717.0,STARLINK-3445,PAYLOAD,2023-03-05 10:13:00,15.08835463,0.0001194,53.2138,228.3982,90.6203,269.4926,-1.6371e-05,-5.48e-06,0.0,0 STARLINK-3445,1 51717U 22016D   23064.42569522 -.00000548  00000-0 -16371-4 0  9993,2 51717  53.2138 228.3982 0001194  90.6203 269.4926 15.08835463 57322,6917.894,95.438,540.585,538.933,0.0
51717.0,STARLINK-3445,PAYLOAD,2023-03-05 18:09:55,15.08838637,0.0001071,53.2135,226.9118,89.9562,270.1553,0.00014035,1.946e-05,0.0,0 STARLINK-3445,1 51717U 22016D   23064.75689588  .00001946  00000-0  14035-3 0  9999,2 51717  53.2135 226.9118 0001071  89.9562 270.1553 15.08838637 57373,6917.885,95.438,540.49,539.009,0.0
51717.0,STARLINK-3445,PAYLOAD,2023-03-06 11:39:10,15.08837852,0.0001542,53.215,223.6391,81.3594,278.7572,0.00021015,3.058e-05,0.0,0 STARLINK-3445,1 51717U 22016D   23065.48553956  .00003058  00000-0  21015-3 0  9991,2 51717  53.2150 223.6391 0001542  81.3594 278.7572 15.08837852 58612,6917.887,95.438,540.819,538.685,0.0
51717.0,STARLINK-3445,PAYLOAD,2023-03-06 19:36:06,15.08843747,0.0001535,53.2133,222.1507,74.7258,285.3904,0.00024682,3.643e-05,0.0,0 STARLINK-3445,1 51717U 22016D   23065.81673741  .00003643  00000-0  24682-3 0  9996,2 51717  53.2133 222.1507 0001535  74.7258 285.3904 15.08843747 57534,6917.869,95.437,540.796,538.672,0.0
51717.0,STARLINK-3445,PAYLOAD,2023-03-07 19:26:52,15.08850735,0.0001599,53.212,217.6903,84.1325,275.9849,0.0002771,4.126e-05,0.0,0 STARLINK-3445,1 51717U 22016D   23066.81033454  .00004126  00000-0  27710-3 0  9990,2 51717  53.2120 217.6903 0001599  84.1325 275.9849 15.08850735 58819,6917.848,95.437,540.819,538.606,0.0
51717.0,STARLINK-3445,PAYLOAD,2023-03-08 16:06:54,15.08842878,0.0002991,53.2087,213.8246,82.8052,277.328,0.00013672,1.888e-05,0.0,0 STARLINK-3445,1 51717U 22016D   23067.67146239  .00001888  00000-0  13672-3 0  9995,2 51717  53.2087 213.8246 0002991  82.8052 277.3280 15.08842878 58946,6917.872,95.437,541.806,537.667,0.0
51717.0,STARLINK-3445,PAYLOAD,2023-03-08 19:17:40,15.08840241,0.0001833,53.2137,213.2288,85.6727,274.4474,0.00013335,1.835e-05,0.0,0 STARLINK-3445,1 51717U 22016D   23067.80394201  .00001835  00000-0  13335-3 0  9992,2 51717  53.2137 213.2288 0001833  85.6727 274.4474 15.08840241 57838,6917.88,95.438,541.013,538.477,0.0
51717.0,STARLINK-3445,PAYLOAD,2023-03-09 03:14:36,15.08839518,0.0001921,53.2121,211.7438,79.1165,281.0043,0.00023767,3.496e-05,0.0,0 STARLINK-3445,1 51717U 22016D   23068.13514597  .00003496  00000-0  23767-3 0  9996,2 51717  53.2121 211.7438 0001921  79.1165 281.0043 15.08839518 59016,6917.882,95.438,541.076,538.418,0.0
51717.0,STARLINK-3445,PAYLOAD,2023-03-09 12:46:55,15.08846463,0.0001689,53.2118,209.9597,78.1699,281.9482,0.0003012,4.51e-05,0.0,0 STARLINK-3445,1 51717U 22016D   23068.53258163  .00004510  00000-0  30120-3 0  9993,2 51717  53.2118 209.9597 0001689  78.1699 281.9482 15.08846463 57942,6917.861,95.437,540.894,538.557,0.0
51717.0,STARLINK-3445,PAYLOAD,2023-03-10 09:26:55,15.08848107,0.0001632,53.2132,206.0948,82.2131,277.9047,0.00026316,3.904e-05,0.0,0 STARLINK-3445,1 51717U 22016D   23069.39370060  .00003904  00000-0  26316-3 0  9997,2 51717  53.2132 206.0948 0001632  82.2131 277.9047 15.08848107 59201,6917.856,95.437,540.85,538.592,0.0
51717.0,STARLINK-3445,PAYLOAD,2023-03-10 15:48:27,15.08857,0.0001234,53.2163,204.9052,78.9715,281.1416,0.00036349,5.504e-05,0.0,0 STARLINK-3445,1 51717U 22016D   23069.65865549  .00005504  00000-0  36349-3 0  9992,2 51717  53.2163 204.9052 0001234  78.9715 281.1416 15.08857000 58114,6917.828,95.436,540.547,538.84,0.0
51717.0,STARLINK-3445,PAYLOAD,2023-03-11 01:20:47,15.08842845,0.0001524,53.2146,203.1196,78.5569,281.5594,7.2729e-05,8.7e-06,0.0,0 STARLINK-3445,1 51717U 22016D   23070.05610164  .00000870  00000-0  72729-4 0  9993,2 51717  53.2146 203.1196 0001524  78.5569 281.5594 15.08842845 59304,6917.872,95.437,540.791,538.682,0.0
51717.0,STARLINK-3445,PAYLOAD,2023-03-11 09:17:43,15.08829216,0.0001219,53.2142,201.6328,96.2444,263.8687,-0.00024311,-4.154e-05,0.0,0 STARLINK-3445,1 51717U 22016D   23070.38730337 -.00004154  00000-0 -24311-3 0  9998,2 51717  53.2142 201.6328 0001219  96.2444 263.8687 15.08829216 59358,6917.913,95.438,540.622,538.935,0.0
51717.0,STARLINK-3445,PAYLOAD,2023-03-11 18:50:00,15.08852459,0.0001054,53.2153,199.8484,106.0032,254.1076,0.00022198,3.248e-05,0.0,0 STARLINK-3445,1 51717U 22016D   23070.78473377  .00003248  00000-0  22198-3 0  9992,2 51717  53.2153 199.8484 0001054 106.0032 254.1076 15.08852459 59418,6917.842,95.437,540.436,538.978,0.0
51717.0,STARLINK-3445,PAYLOAD,2023-03-12 09:08:30,15.08822671,0.0001351,53.2132,197.1709,120.4747,239.6379,-0.00020679,-3.576e-05,0.0,0 STARLINK-3445,1 51717U 22016D   23071.38091080 -.00003576  00000-0 -20679-3 0  9994,2 51717  53.2132 197.1709 0001351 120.4747 239.6379 15.08822671 59506,6917.933,95.439,540.733,538.864,0.0
51717.0,STARLINK-3445,PAYLOAD,2023-03-12 18:40:49,15.08840119,8.59e-05,53.2145,195.3868,125.5389,234.5684,0.0001686,2.397e-05,0.0,0 STARLINK-3445,1 51717U 22016D   23071.77834611  .00002397  00000-0  16860-3 0  9997,2 51717  53.2145 195.3868 0000859 125.5389 234.5684 15.08840119 59562,6917.88,95.438,540.339,539.151,0.0
51717.0,STARLINK-3445,PAYLOAD,2023-03-13 10:34:40,15.0883824,0.0001171,53.2147,192.4152,119.8765,240.2343,0.00026998,4.011e-05,0.0,0 STARLINK-3445,1 51717U 22016D   23072.44075072  .00004011  00000-0  26998-3 0  9998,2 51717  53.2147 192.4152 0001171 119.8765 240.2343 15.08838240 58534,6917.886,95.438,540.561,538.941,0.0
51717.0,STARLINK-3445,PAYLOAD,2023-03-14 13:36:13,15.08846704,0.0001279,53.2141,187.3585,113.8939,246.2188,0.00022697,3.327e-05,0.0,0 STARLINK-3445,1 51717U 22016D   23073.56682838  .00003327  00000-0  22697-3 0  9997,2 51717  53.2141 187.3585 0001279 113.8939 246.2188 15.08846704 59838,6917.86,95.437,540.61,538.84,0.0
51717.0,STARLINK-3445,PAYLOAD,2023-03-15 11:51:36,15.08863066,0.0001128,53.2139,183.196,112.2233,247.8879,0.00036986,5.607e-05,0.0,0 STARLINK-3445,1 51717U 22016D   23074.49417511  .00005607  00000-0  36986-3 0  9993,2 51717  53.2139 183.1960 0001128 112.2233 247.8879 15.08863066 59978,6917.81,95.436,540.455,538.895,0.0
51717.0,STARLINK-3445,PAYLOAD,2023-03-16 03:45:28,15.08821135,0.0001137,53.2141,180.223,97.5521,262.5601,-0.00052135,-8.571e-05,0.0,0 STARLINK-3445,1 51717U 22016D   23075.15658508 -.00008571  00000-0 -52135-3 0  9999,2 51717  53.2141 180.2230 0001137  97.5521 262.5601 15.08821135 60075,6917.938,95.439,540.59,539.016,0.0
51717.0,STARLINK-3445,PAYLOAD,2023-03-16 11:42:24,15.08828282,0.0001062,53.2148,178.7359,102.7437,257.3673,-0.00028419,-4.806e-05,0.0,0 STARLINK-3445,1 51717U 22016D   23075.48778608 -.00004806  00000-0 -28419-3 0  9994,2 51717  53.2148 178.7359 0001062 102.7437 257.3673 15.08828282 58997,6917.916,95.438,540.516,539.047,0.0
51717.0,STARLINK-3445,PAYLOAD,2023-03-17 06:47:03,15.08811763,0.0001058,53.2151,175.168,95.9067,264.2046,-0.0003146,-5.287e-05,0.0,0 STARLINK-3445,1 51717U 22016D   23076.28268208 -.00005287  00000-0 -31460-3 0  9997,2 51717  53.2151 175.1680 0001058  95.9067 264.2046 15.08811763 60244,6917.967,95.439,540.564,539.1,0.0
